P/2017 G2 (PANSTARRS),e,47.9528,79.7985,105.6126,8.080743,0.0429069,0.64871542,41.4330,02/03.0/2020,2000,g 13.0,4.0
# From MPC109144
C/2017 G3 (PANSTARRS),e,159.0586,279.4802,73.1498,305.5467,0.0001845,0.99151854,0.0000,04/15.3959/2017,2000,g 14.0,4.0
# From MPC115882
C/2017 K1 (PANSTARRS),h,03/16.8099/2018,154.0087,225.6483,4.3542,1.001210,7.288514,2000,7.0,4.0
# From MPC119995
C/2017 K2 (PANSTARRS),h,12/20.0975/2022,87.5422,88.2679,236.1444,1.000399,1.800636,2000,1.5,4.0
# From MPC106346
P/2017 K3 (Gasparovic),e,4.2753,354.3038,253.4139,5.579460,0.0747852,0.58094233,73.0865,02/03.0/2020,2000,g 14.5,4.0
# From MPC114598
C/2017 K4 (ATLAS),e,16.6797,298.8727,15.1874,28.39590,0.0065136,0.90670380,4.9224,02/03.0/2020,2000,g 10.0,4.0
# From MPC119995
C/2017 K5 (PANSTARRS),h,03/23.8630/2020,82.2642,102.3734,171.8158,1.006110,7.678721,2000,5.0,4.0
# From MPC114599
C/2017 K6 (Jacques),e,57.2549,85.0535,303.7812,1064,0.0000284,0.99811933,0.0000,01/03.1835/2018,2000,g 11.0,4.0
# From MPC110083
C/2017 M3 (PANSTARRS),e,77.5265,7.0035,110.3617,168.1564,0.0004520,0.97229727,0.0000,04/28.2399/2017,2000,g 10.5,4.0
# From MPC118093
C/2017 M4 (ATLAS),h,01/17.8738/2019,105.6440,65.8639,167.5597,1.001194,3.251427,2000,6.0,4.0
# From MPC118841
C/2017 M5 (TOTAS),h,06/03.6744/2018,15.8826,216.2728,92.7146,1.004933,5.991166,2000,6.5,4.0
# From MPC114599
C/2017 O1 (ASASSN),e,39.8701,25.7848,20.8645,361.6176,0.0001433,0.99586074,0.0000,10/14.7189/2017,2000,g 11.0,4.0
# From MPC114599
P/2017 P1 (PANSTARRS),e,7.6995,221.4010,122.1718,7.886198,0.0445044,0.31017823,26.4945,02/03.0/2020,2000,g 10.0,4.0
# From MPC114599
C/2017 P2 (PANSTARRS),e,50.0635,165.5165,132.3015,1834,0.0000125,0.99865691,0.0000,12/06.6725/2017,2000,g 10.0,4.0
# From MPC114599
P/2017 R1 (PANSTARRS),e,2.5734,143.6251,178.5062,4.134941,0.1172196,0.19549585,120.7129,02/03.0/2020,2000,g 13.5,4.0
# From MPC108595
C/2017 S2 (PANSTARRS),e,12.6810,62.4194,305.9361,20.49857,0.0106199,0.82377916,9.4263,02/03.0/2020,2000,g 13.0,4.0
# From MPC114599
C/2017 S3 (PANSTARRS),h,08/15.9601/2018,99.0822,171.1005,255.8386,1.000049,0.208430,2000,11.0,4.0
# From MPC114599
P/2017 S5 (ATLAS),e,11.8503,252.3874,99.8357,3.169328,0.1746841,0.31369267,160.6836,02/03.0/2020,2000,g 14.0,4.0
# From MPC109591
C/2017 S6 (Catalina),h,02/26.7411/2018,152.8680,131.0521,134.7962,1.000778,1.541715,2000,12.5,4.0
# From MPC114599
C/2017 S7 (Lemmon),h,05/26.2228/2017,124.2333,262.7932,187.6435,1.001478,7.610265,2000,7.0,4.0
# From MPC114599
P/2017 S8 (PANSTARRS),e,29.8286,191.7485,254.6928,2.777958,0.2128705,0.39284631,156.5985,02/03.0/2020,2000,g 16.0,4.0
# From MPC107050
P/2017 S9 (PANSTARRS),e,14.1431,146.2161,237.7462,3.154353,0.1759295,0.30483586,162.6906,02/03.0/2020,2000,g 17.0,4.0
# From MPC114600
C/2017 T1 (Heinze),h,02/21.5235/2018,96.8374,102.3184,96.9012,1.000029,0.581020,2000,14.5,4.0
# From MPC119996
C/2017 T2 (PANSTARRS),e,57.2308,64.3783,92.9937,4820,0.0000029,0.99966490,0.0000,05/04.9507/2020,2000,g  5.0,4.0
# From MPC114600
C/2017 T3 (ATLAS),e,88.0298,230.0671,246.8357,1534,0.0000164,0.99946235,0.0000,07/19.1005/2018,2000,g 10.0,4.0
# From MPC115882
P/2017 TW13 (Lemmon),e,44.8456,322.2826,120.0664,7.151410,0.0515367,0.70941148,30.5161,02/03.0/2020,2000,g 15.0,2.0
# From MPC114600
C/2017 U2 (Fuls),e,95.3966,149.7136,147.7596,5199,0.0000026,0.99871075,0.0000,08/28.2939/2017,2000,g  9.0,4.0
# From MPC114600
P/2017 U3 (PANSTARRS),e,15.9114,165.1118,297.2095,4.932820,0.0899624,0.09904456,26.0487,02/03.0/2020,2000,g 11.0,4.0
# From MPC114600
C/2017 U4 (PANSTARRS),h,09/24.4184/2018,158.2233,245.9506,159.0944,1.003597,7.723149,2000,7.0,4.0
# From MPC114600
C/2017 U5 (PANSTARRS),e,18.9650,163.0886,262.0835,16.88357,0.0142072,0.74387843,11.0315,02/03.0/2020,2000,g 12.0,4.0
# From MPC118841
A/2017 U7,h,09/11.8904/2019,142.6348,276.2327,326.0829,1.001894,6.417582,2000,8.3,2.0
# From MPC114600
C/2017 W2 (Leonard),e,98.1982,312.8313,169.1209,13.68992,0.0194582,0.71103540,16.0197,02/03.0/2020,2000,g 11.0,4.0
# From MPC114601
P/2017 W3 (Gibbs),e,18.2018,210.5015,327.3692,7.838198,0.0449138,0.50881592,31.6092,02/03.0/2020,2000,g 10.5,4.0
# From MPC115883
C/2017 X1 (PANSTARRS),e,31.3070,251.1288,283.2547,31.48862,0.0055779,0.85181134,3.3330,02/03.0/2020,2000,g 10.0,4.0
# From MPC117069
C/2017 Y1 (PANSTARRS),e,55.2620,307.5234,134.3798,2088,0.0000103,0.99822044,0.0000,08/31.1933/2017,2000,g 11.5,4.0
# From MPC118841
C/2017 Y2 (PANSTARRS),h,11/04.4587/2020,128.4306,65.9712,147.8312,1.000321,4.632456,2000,15.0,4.0
# From MPC111770
P/2017 Y3 (Leonard),e,27.5729,153.8636,67.5648,9.852473,0.0318703,0.87040478,23.0071,02/03.0/2020,2000,g 16.5,4.0
# From MPC114601
C/2018 A1 (PANSTARRS),e,53.5861,336.6315,96.3328,25.13997,0.0078191,0.90382051,6.5345,02/03.0/2020,2000,g 12.5,4.0
# From MPC119996
C/2018 A3 (ATLAS),e,139.5563,194.2906,86.4184,503.9220,0.0000871,0.99349830,0.0000,01/12.7973/2019,2000,g  8.5,4.0
# From MPC114601
C/2018 A4 (PANSTARRS),e,3.1481,97.6350,356.0974,12.22948,0.0230458,0.80357839,14.4122,02/03.0/2020,2000,g 14.0,4.0
# From MPC109147
P/2018 A5 (PANSTARRS),e,23.5779,87.8306,359.6367,5.639740,0.0735894,0.52230342,63.4781,02/03.0/2020,2000,g 15.0,4.0
# From MPC119996
C/2018 A6 (Gibbs),e,76.9555,340.3855,264.5395,15.35078,0.0163873,0.80340425,3.3380,02/03.0/2020,2000,g  9.0,4.0
# From MPC118841
C/2018 B1 (Lemmon),h,03/29.9850/2018,162.4213,133.1870,68.3214,1.002018,5.115505,2000,9.0,4.0
# From MPC114601
P/2018 C1 (Lemmon-Read),e,5.1399,270.3869,235.2615,5.638227,0.0736191,0.53589088,51.9226,02/03.0/2020,2000,g 13.5,4.0
# From MPC114601
C/2018 C2 (Lemmon),h,06/02.0418/2018,34.4584,91.1393,134.1098,1.001088,1.956601,2000,13.0,4.0
# From MPEC 2020-AA5
C/2018 DO4 (Lemmon),e,160.4742,251.1320,175.9650,25.81384,0.0075149,0.90679749,1.2672,02/03.0/2020,2000,g 11.0,4.0
# From MPC114602
C/2018 E1 (ATLAS),e,72.5003,146.8477,299.4486,54.10696,0.0024764,0.95001221,1.6264,02/03.0/2020,2000,g 10.5,4.0
# From MPC114602
C/2018 E2 (Barros),e,97.7348,67.2010,277.4836,3350,0.0000051,0.99882939,0.0000,12/23.8888/2017,2000,g 10.5,4.0
# From MPC114602
C/2018 EN4 (NEOWISE),e,81.5825,136.1559,35.0119,18.33221,0.0125569,0.92098119,7.6018,02/03.0/2020,2000,g 15.0,4.0
# From MPC114602
C/2018 EF9 (Lemmon),e,84.6697,172.5772,72.6212,603.8867,0.0000664,0.99742177,0.0000,05/23.0661/2018,2000,g 18.0,2.0
# From MPC115883
C/2018 F1 (Grauer),e,46.0744,177.2771,71.6379,304.3976,0.0001856,0.99016625,0.0000,12/14.0374/2018,2000,g 11.5,4.0
# From MPC110084
C/2018 F3 (Johnson),p,08/15.2314/2017,105.5348,293.0113,2.483172,173.0311,2000,13.0,4.0
# From MPC119996
C/2018 F4 (PANSTARRS),h,12/04.1056/2019,78.0984,26.5078,263.2147,1.001471,3.439847,2000,11.9,2.0
# From MPC114602
P/2018 H2 (PANSTARRS),e,7.3883,68.4405,120.0455,4.397630,0.1068750,0.53985288,79.1934,02/03.0/2020,2000,g 16.6,2.0
# From MPC114602
C/2018 K1 (Weiland),e,164.1960,260.0137,324.9939,29.83854,0.0060470,0.93701366,4.0347,02/03.0/2020,2000,g 14.9,4.0
# From MPC118094
C/2018 KJ3 (Lemmon),e,136.7093,91.5945,217.6285,742.5307,0.0000487,0.99511309,0.0000,09/09.5139/2019,2000,g 12.2,2.0
# From MPC114602
P/2018 L1 (PANSTARRS),e,10.5946,268.6270,17.9299,3.648935,0.1414018,0.48304567,63.2649,02/03.0/2020,2000,g 15.0,4.0
# From MPC118841
C/2018 L2 (ATLAS),e,67.4172,243.0215,56.2502,251.3014,0.0002474,0.99318722,0.0000,12/02.6232/2018,2000,g 10.0,4.0
# From MPC114603
P/2018 L4 (PANSTARRS),e,26.6233,145.1759,140.4942,4.937407,0.0898371,0.66032348,49.5095,02/03.0/2020,2000,g 17.5,4.0
# From MPC119996
P/2018 L5 (Leonard),e,2.2088,219.1525,93.7234,3.626809,0.1426977,0.36475683,91.2147,02/03.0/2020,2000,g 14.5,4.0
# From MPC117070
C/2018 M1 (Catalina),e,37.2696,339.4380,14.1432,21.29897,0.0100269,0.93882561,5.7445,02/03.0/2020,2000,g 15.5,4.0
# From MPC112393
C/2018 N1 (NEOWISE),e,159.4448,292.4446,354.5729,332.3173,0.0001627,0.99606420,0.0000,08/01.9278/2018,2000,g 15.5,4.0
# From MPC119996
C/2018 N2 (ASASSN),h,11/10.9651/2019,77.5303,25.2581,24.3971,1.000167,3.124645,2000,6.0,4.0
# From MPC114603
C/2018 O1 (ATLAS),e,154.0426,87.6247,162.5155,27.78095,0.0067311,0.94389244,3.5033,02/03.0/2020,2000,g 17.0,4.0
# From MPC114603
P/2018 P3 (PANSTARRS),e,8.9084,59.2036,305.8709,3.007018,0.1890166,0.41608984,91.0127,02/03.0/2020,2000,g 14.5,4.0
# From MPC114603
P/2018 P4 (PANSTARRS),e,23.1069,353.0963,8.1489,6.665719,0.0572708,0.44998849,25.9139,02/03.0/2020,2000,g 12.0,4.0
# From MPC118094
C/2018 P5 (PANSTARRS),e,7.2556,216.2455,131.6622,12.76913,0.0216004,0.64162373,7.3765,02/03.0/2020,2000,g 11.0,4.0
# From MPC118841
C/2018 R3 (Lemmon),e,69.7188,324.6262,112.8713,1918,0.0000117,0.99932730,0.0000,06/07.1955/2019,2000,g  9.5,4.0
# From MPC112393
C/2018 R4 (Fuls),e,11.6833,298.4409,345.2140,315.6116,0.0001758,0.99457905,0.0000,03/03.6787/2018,2000,g 14.0,4.0
# From MPC114603
C/2018 R5 (Lemmon),e,103.7501,171.1393,178.0283,22.81672,0.0090432,0.84127222,3.5175,02/03.0/2020,2000,g 11.5,4.0
# From MPC119996
C/2018 U1 (Lemmon),h,11/02.7626/2021,108.3020,75.4762,180.4025,1.000401,4.994879,2000,5.0,4.0
# From MPC114604
C/2018 V1 (Machholz-Fujikawa-Iwamoto),h,12/03.5219/2018,144.0509,128.8707,88.8442,1.000468,0.385987,2000,12.0,4.0
# From MPC115884
C/2018 V2 (ATLAS),e,159.1149,356.8061,318.7072,25.46137,0.0076715,0.90275629,3.3218,02/03.0/2020,2000,g 15.0,4.0
# From MPC114604
P/2018 VN2 (Leonard),e,18.2470,226.5428,138.7291,4.065296,0.1202447,0.47810367,73.0675,02/03.0/2020,2000,g 15.0,4.0
# From MPC117070
A/2018 V3,e,164.9777,308.6590,3.4961,121.4396,0.0007365,0.98897049,0.0000,09/08.6917/2019,2000,g 15.7,2.0
# From MPC114604
C/2018 V4 (Africano),e,69.0042,78.3799,359.9797,211.7225,0.0003199,0.98489196,0.0000,03/01.5719/2019,2000,g 12.5,4.0
# From MPC114604
P/2018 V5 (Trujillo-Sheppard),e,10.5816,171.3019,260.7527,8.956529,0.0367701,0.47449617,17.9359,02/03.0/2020,2000,g 12.5,4.0
# From MPC115884
C/2018 W1 (Catalina),e,83.2686,233.5917,251.2590,21.81333,0.0096743,0.93763464,2.5844,02/03.0/2020,2000,g 15.7,2.0
# From MPC119996
